[{"OBJECT_NAME":"STARLINK-4414","OBJECT_ID":"2022-084AA","EPOCH":"2026-03-09T21:00:41.249088","MEAN_MOTION":15.01269066,"ECCENTRICITY":0.00029931,"INCLINATION":97.6036,"RA_OF_ASC_NODE":130.3813,"ARG_OF_PERICENTER":194.6003,"MEAN_ANOMALY":165.5136,"EPHEMERIS_TYPE":0,"CLASSIFICATION_TYPE":"U","NORAD_CAT_ID":53213,"ELEMENT_SET_NO":999,"REV_AT_EPOCH":19986,"BSTAR":-8.7124721e-5,"MEAN_MOTION_DOT":-1.178e-5,"MEAN_MOTION_DDOT":0},{"OBJECT_NAME":"OV1-5 DEB","OBJECT_ID":"1966-025G","EPOCH":"2026-03-09T05:46:25.644576","MEAN_MOTION":14.96071423,"ECCENTRICITY":0.0021156,"INCLINATION":144.6099,"RA_OF_ASC_NODE":304.3983,"ARG_OF_PERICENTER":142.8833,"MEAN_ANOMALY":217.3344,"EPHEMERIS_TYPE":0,"CLASSIFICATION_TYPE":"U","NORAD_CAT_ID":5599,"ELEMENT_SET_NO":999,"REV_AT_EPOCH":8962,"BSTAR":0.0043119514,"MEAN_MOTION_DOT":0.00050705,"MEAN_MOTION_DDOT":0}]
